NORAD_CAT_ID,OBJECT_NAME,OBJECT_TYPE,EPOCH,MEAN_MOTION,ECCENTRICITY,INCLINATION,RA_OF_ASC_NODE,ARG_OF_PERICENTER,MEAN_ANOMALY,BSTAR,MEAN_MOTION_DOT,MEAN_MOTION_DDOT,TLE_LINE0,TLE_LINE1,TLE_LINE2,SEMIMAJOR_AXIS,PERIOD,APOGEE,PERIGEE,DECAYED
55953.0,STARLINK-5889,PAYLOAD,2024-01-07 14:48:29,14.98329172,0.0002919,70.0002,101.7466,262.3067,97.7761,7.0716e-07,-8.5e-07,0.0,0 STARLINK-5889,1 55953U 23037AR  24007.61701013 -.00000085  00000-0  70716-6 0  9995,2 55953  70.0002 101.7466 0002919 262.3067  97.7761 14.98329172 45822,6950.195,96.107,574.089,570.032,0.0
55953.0,STARLINK-5889,PAYLOAD,2024-01-07 16:24:37,14.98329826,0.0002921,70.0002,101.5783,262.4021,97.6806,7.3231e-06,-6e-08,0.0,0 STARLINK-5889,1 55953U 23037AR  24007.68376953 -.00000006  00000-0  73231-5 0  9990,2 55953  70.0002 101.5783 0002921 262.4021  97.6806 14.98329826 46170,6950.193,96.107,574.089,570.028,0.0
55953.0,STARLINK-5889,PAYLOAD,2024-01-08 14:50:30,14.98334269,0.0002895,70.0002,99.2215,264.7177,95.3652,6.6564e-06,-1.4e-07,0.0,0 STARLINK-5889,1 55953U 23037AR  24008.61840501 -.00000014  00000-0  66564-5 0  9999,2 55953  70.0002  99.2215 0002895 264.7177  95.3652 14.98334269 45978,6950.18,96.107,574.057,570.033,0.0
55953.0,STARLINK-5889,PAYLOAD,2024-01-09 11:40:15,14.98328541,0.000288,70.0002,97.0331,266.5679,93.5151,4.1672e-06,-4.3e-07,0.0,0 STARLINK-5889,1 55953U 23037AR  24009.48628787 -.00000043  00000-0  41672-5 0  9990,2 55953  70.0002  97.0331 0002880 266.5679  93.5151 14.98328541 46447,6950.197,96.107,574.064,570.061,0.0
55953.0,STARLINK-5889,PAYLOAD,2024-01-09 13:16:23,14.98328934,0.0002862,70.0002,96.8649,266.024,94.0592,9.2395e-06,1.7e-07,0.0,0 STARLINK-5889,1 55953U 23037AR  24009.55304747  .00000017  00000-0  92395-5 0  9993,2 55953  70.0002  96.8649 0002862 266.0240  94.0592 14.98328934 46110,6950.196,96.107,574.05,570.072,0.0
55953.0,STARLINK-5889,PAYLOAD,2024-01-09 16:28:39,14.98343311,0.0002912,70.0002,96.5283,267.138,92.9446,-0.0002033,-2.519e-05,0.0,0 STARLINK-5889,1 55953U 23037AR  24009.68656261 -.00002519  00000-0 -20330-3 0  9997,2 55953  70.0002  96.5283 0002912 267.1380  92.9446 14.98343311 46474,6950.152,96.106,574.041,569.993,0.0
55953.0,STARLINK-5889,PAYLOAD,2024-01-10 08:29:59,14.98331358,0.0002774,70.0004,94.8456,261.6728,98.4117,-1.067e-05,-2.2e-06,0.0,0 STARLINK-5889,1 55953U 23037AR  24010.35416542 -.00000220  00000-0 -10670-4 0  9993,2 55953  70.0004  94.8456 0002774 261.6728  98.4117 14.98331358 46575,6950.189,96.107,573.982,570.126,0.0
55953.0,STARLINK-5889,PAYLOAD,2024-01-11 11:44:17,14.98326549,0.0002999,69.9996,91.9835,269.106,90.9755,-3.7863e-05,-5.45e-06,0.0,0 STARLINK-5889,1 55953U 23037AR  24011.48908959 -.00000545  00000-0 -37863-4 0  9999,2 55953  69.9996  91.9835 0002999 269.1060  90.9755 14.98326549 46742,6950.204,96.107,574.153,569.984,0.0
55953.0,STARLINK-5889,PAYLOAD,2024-01-11 14:56:33,14.98329385,0.0002994,69.9998,91.6476,268.3771,91.7045,-2.5391e-07,-9.6e-07,0.0,0 STARLINK-5889,1 55953U 23037AR  24011.62260682 -.00000096  00000-0 -25391-6 0  9995,2 55953  69.9998  91.6476 0002994 268.3771  91.7045 14.98329385 46424,6950.195,96.107,574.141,569.979,0.0
55953.0,STARLINK-5889,PAYLOAD,2024-01-12 13:22:26,14.98328945,0.0002787,70.0,89.29,261.5661,98.5183,-1.3213e-06,-1.09e-06,0.0,0 STARLINK-5889,1 55953U 23037AR  24012.55724854 -.00000109  00000-0 -13213-5 0  9998,2 55953  70.0000  89.2900 0002787 261.5661  98.5183 14.98328945 46563,6950.196,96.107,573.998,570.124,0.0
55953.0,STARLINK-5889,PAYLOAD,2024-01-12 14:58:34,14.98328218,0.0002684,70.0004,89.1221,255.9599,104.1261,-1.3269e-06,-1.09e-06,0.0,0 STARLINK-5889,1 55953U 23037AR  24012.62400881 -.00000109  00000-0 -13269-5 0  9998,2 55953  70.0004  89.1221 0002684 255.9599 104.1261 14.98328218 46918,6950.198,96.107,573.929,570.198,0.0
55953.0,STARLINK-5889,PAYLOAD,2024-01-13 13:24:26,14.98332509,0.0002677,70.0001,86.7654,259.0248,101.061,8.6843e-05,9.43e-06,0.0,0 STARLINK-5889,1 55953U 23037AR  24013.55864328  .00000943  00000-0  86843-4 0  9992,2 55953  70.0001  86.7654 0002677 259.0248 101.0610 14.98332509 46716,6950.185,96.107,573.911,570.19,0.0
55953.0,STARLINK-5889,PAYLOAD,2024-01-13 15:00:34,14.98333807,0.000268,70.0002,86.5973,259.9668,100.1189,9.806e-05,1.077e-05,0.0,0 STARLINK-5889,1 55953U 23037AR  24013.62540204  .00001077  00000-0  98060-4 0  9997,2 55953  70.0002  86.5973 0002680 259.9668 100.1189 14.98333807 47060,6950.181,96.107,573.909,570.183,0.0
55953.0,STARLINK-5889,PAYLOAD,2024-01-14 03:49:39,14.98328146,0.000252,70.0006,85.2503,261.7283,98.359,3.5547e-05,3.31e-06,0.0,0 STARLINK-5889,1 55953U 23037AR  24014.15948701  .00000331  00000-0  35547-4 0  9993,2 55953  70.0006  85.2503 0002520 261.7283  98.3590 14.98328146 47149,6950.199,96.107,573.815,570.312,0.0
55953.0,STARLINK-5889,PAYLOAD,2024-01-14 13:26:28,14.9832735,0.0002548,70.0004,84.2401,262.5175,97.5694,1.7989e-05,1.22e-06,0.0,0 STARLINK-5889,1 55953U 23037AR  24014.56004842  .00000122  00000-0  17989-4 0  9995,2 55953  70.0004  84.2401 0002548 262.5175  97.5694 14.98327350 46862,6950.201,96.107,573.837,570.295,0.0
55953.0,STARLINK-5889,PAYLOAD,2024-01-14 15:02:36,14.98328899,0.0002543,70.0006,84.072,264.3347,95.7522,3.6382e-05,3.41e-06,0.0,0 STARLINK-5889,1 55953U 23037AR  24014.62680708  .00000341  00000-0  36382-4 0  9994,2 55953  70.0006  84.0720 0002543 264.3347  95.7522 14.98328899 46872,6950.196,96.107,573.829,570.294,0.0
55953.0,STARLINK-5889,PAYLOAD,2024-01-15 11:52:20,14.98334854,0.0002554,70.0006,81.8841,262.4976,97.5893,-1.8718e-05,-3.16e-06,0.0,0 STARLINK-5889,1 55953U 23037AR  24015.49468247 -.00000316  00000-0 -18718-4 0  9999,2 55953  70.0006  81.8841 0002554 262.4976  97.5893 14.98334854 47342,6950.178,96.107,573.818,570.268,0.0
55953.0,STARLINK-5889,PAYLOAD,2024-01-15 13:28:28,14.98335938,0.0002538,70.0006,81.7158,261.8355,98.2516,-5.2399e-06,-1.55e-06,0.0,0 STARLINK-5889,1 55953U 23037AR  24015.56144112 -.00000155  00000-0 -52399-5 0  9994,2 55953  70.0006  81.7158 0002538 261.8355  98.2516 14.98335938 47016,6950.175,96.107,573.803,570.276,0.0
55953.0,STARLINK-5889,PAYLOAD,2024-01-15 15:04:36,14.98336511,0.0002537,70.0006,81.5474,260.4237,99.6636,2.7126e-06,-6.1e-07,0.0,0 STARLINK-5889,1 55953U 23037AR  24015.62820020 -.00000061  00000-0  27126-5 0  9995,2 55953  70.0006  81.5474 0002537 260.4237  99.6636 14.98336511 47025,6950.173,96.107,573.801,570.274,0.0
55953.0,STARLINK-5889,PAYLOAD,2024-01-16 11:54:22,14.98322604,0.0002544,70.0007,79.3592,255.8337,104.254,-4.1996e-05,-5.94e-06,0.0,0 STARLINK-5889,1 55953U 23037AR  24016.49608972 -.00000594  00000-0 -41996-4 0  9993,2 55953  70.0007  79.3592 0002544 255.8337 104.2540 14.98322604 47495,6950.216,96.107,573.849,570.313,0.0
55953.0,STARLINK-5889,PAYLOAD,2024-01-16 13:30:30,14.98322891,0.0002543,70.0008,79.1909,256.067,104.0206,-3.8962e-05,-5.58e-06,0.0,0 STARLINK-5889,1 55953U 23037AR  24016.56284969 -.00000558  00000-0 -38962-4 0  9996,2 55953  70.0008  79.1909 0002543 256.0670 104.0206 14.98322891 47167,6950.215,96.107,573.847,570.312,0.0
55953.0,STARLINK-5889,PAYLOAD,2024-01-17 11:56:23,14.98325852,0.0002626,70.0006,76.8355,251.65,108.4374,-6.2863e-05,-8.43e-06,0.0,0 STARLINK-5889,1 55953U 23037AR  24017.49749043 -.00000843  00000-0 -62863-4 0  9992,2 55953  70.0006  76.8355 0002626 251.6500 108.4374 14.98325852 47646,6950.206,96.107,573.896,570.246,0.0
55953.0,STARLINK-5889,PAYLOAD,2024-01-17 13:32:31,14.98326048,0.0002655,70.0005,76.667,253.7321,106.3546,-6.1472e-05,-8.26e-06,0.0,0 STARLINK-5889,1 55953U 23037AR  24017.56425048 -.00000826  00000-0 -61472-4 0  9992,2 55953  70.0005  76.6670 0002655 253.7321 106.3546 14.98326048 47319,6950.205,96.107,573.915,570.225,0.0
55953.0,STARLINK-5889,PAYLOAD,2024-01-18 11:58:23,14.98328981,0.0002804,70.0002,74.3091,267.3666,92.7172,8.9104e-05,9.7e-06,0.0,0 STARLINK-5889,1 55953U 23037AR  24018.49888553  .00000970  00000-0  89104-4 0  9999,2 55953  70.0002  74.3091 0002804 267.3666  92.7172 14.98328981 47790,6950.196,96.107,574.01,570.112,0.0
55953.0,STARLINK-5889,PAYLOAD,2024-01-18 13:34:32,14.98322249,0.0002779,69.9999,74.1404,266.5845,93.4996,5.7039e-06,-2.5e-07,0.0,0 STARLINK-5889,1 55953U 23037AR  24018.56565212 -.00000025  00000-0  57039-5 0  9996,2 55953  69.9999  74.1404 0002779 266.5845  93.4996 14.98322249 47466,6950.217,96.107,574.013,570.15,0.0
55953.0,STARLINK-5889,PAYLOAD,2024-01-19 03:59:44,14.98328034,0.0002915,69.9992,72.6247,277.0824,83.0003,3.4251e-05,3.16e-06,0.0,0 STARLINK-5889,1 55953U 23037AR  24019.16648919  .00000316  00000-0  34251-4 0  9991,2 55953  69.9992  72.6247 0002915 277.0824  83.0003 14.98328034 47892,6950.199,96.107,574.09,570.038,0.0
55953.0,STARLINK-5889,PAYLOAD,2024-01-19 13:36:32,14.98331799,0.000233,70.0006,71.6152,251.5668,108.5238,0.00011376,1.265e-05,0.0,0 STARLINK-5889,1 55953U 23037AR  24019.56704350  .00001265  00000-0  11376-3 0  9993,2 55953  70.0006  71.6152 0002330 251.5668 108.5238 14.98331799 47614,6950.187,96.107,573.672,570.433,0.0
55953.0,STARLINK-5889,PAYLOAD,2024-01-20 13:38:33,14.98331362,0.0002572,70.0,69.0898,264.58,95.5065,-2.1109e-05,-3.45e-06,0.0,0 STARLINK-5889,1 55953U 23037AR  24020.56844500 -.00000345  00000-0 -21109-4 0  9993,2 55953  70.0000  69.0898 0002572 264.5800  95.5065 14.98331362 47761,6950.189,96.107,573.841,570.266,0.0
55953.0,STARLINK-5889,PAYLOAD,2024-01-21 05:39:54,14.98332354,0.0002515,70.0001,67.4068,260.1013,99.9862,-5.1105e-05,-7.03e-06,0.0,0 STARLINK-5889,1 55953U 23037AR  24021.23604449 -.00000703  00000-0 -51105-4 0  9991,2 55953  70.0001  67.4068 0002515 260.1013  99.9862 14.98332354 47864,6950.186,96.107,573.799,570.303,0.0
55953.0,STARLINK-5889,PAYLOAD,2024-01-21 13:40:34,14.98331507,0.0002532,70.0002,66.5652,260.4381,99.6492,-5.4989e-05,-7.49e-06,0.0,0 STARLINK-5889,1 55953U 23037AR  24021.56984471 -.00000749  00000-0 -54989-4 0  9996,2 55953  70.0002  66.5652 0002532 260.4381  99.6492 14.98331507 48253,6950.188,96.107,573.813,570.293,0.0
